ACS3                    
1 59588U 24077B   24184.17133456  .00000071  00000+0  11773-3 0  9993
2 59588  97.4056 248.8713 0021283  56.3898 303.9281 13.67689255  9452
